{"type": "FeatureCollection", "features": [ {"type": "Feature", "properties": {"norad_id": 35287, "name": "COSMOS 2251 DEB", "group": "cosmos-2251-debris", "lat": -71.19823018422598, "lon": -133.6128263098164, "alt_km": 779.8842461401482, "timestamp": "2025-12-08T15:42:50.192086+00:00", "meta": {"OBJECT_NAME": "COSMOS 2251 DEB", "OBJECT_ID": "1993-036AJR", "EPOCH": "2025-12-08T02:47:53.746656", "MEAN_MOTION": 14.36369508, "ECCENTRICITY": 0.00173478, "INCLINATION": 74.0303, "RA_OF_ASC_NODE": 284.6307, "ARG_OF_PERICENTER": 22.5668, "MEAN_ANOMALY": 356.0549, "EPHEMERIS_TYPE": 0, "CLASSIFICATION_TYPE": "U", "NORAD_CAT_ID": 35287, "ELEMENT_SET_NO": 999, "REV_AT_EPOCH": 86826, "BSTAR": 0.00024246061, "MEAN_MOTION_DOT": 6.85e-06, "MEAN_MOTION_DDOT": 0}, "tle": {"line1": "1 35287U 93036AJR 25342.11659429  .00000685  00000+0  24246-3 0  9998", "line2": "2 35287  74.0303 284.6307 0017347  22.5668 356.0549 14.36369508868262"}}, "geometry": {"type": "Point", "coordinates": [-133.6128263098164, -71.19823018422598]}}, {"type": "Feature", "properties": {"norad_id": 35288, "name": "COSMOS 2251 DEB", "group": "cosmos-2251-debris", "lat": 4.134695299847852, "lon": 24.27373225184368, "alt_km": 686.203347802706, "timestamp": "2025-12-08T15:42:50.192096+00:00", "meta": {"OBJECT_NAME": "COSMOS 2251 DEB", "OBJECT_ID": "1993-036AJS", "EPOCH": "2025-12-05T20:30:59.855616", "MEAN_MOTION": 14.65344236, "ECCENTRICITY": 0.00396154, "INCLINATION": 73.9509, "RA_OF_ASC_NODE": 28.4958, "ARG_OF_PERICENTER": 262.8912, "MEAN_ANOMALY": 96.775, "EPHEMERIS_TYPE": 0, "CLASSIFICATION_TYPE": "U", "NORAD_CAT_ID": 35288, "ELEMENT_SET_NO": 999, "REV_AT_EPOCH": 87777, "BSTAR": 0.0019659658, "MEAN_MOTION_DOT": 0.00010724, "MEAN_MOTION_DDOT": 0}, "tle": {"line1": "1 35288U 93036AJS 25339.85485944  .00010724  00000+0  19660-2 0  9993", "line2": "2 35288  73.9509  28.4958 0039615 262.8912  96.7750 14.65344236877779"}}, "geometry": {"type": "Point", "coordinates": [24.27373225184368, 4.134695299847852]}}, {"type": "Feature", "properties": {"norad_id": 35290, "name": "COSMOS 2251 DEB", "group": "cosmos-2251-debris", "lat": 60.23817133316817, "lon": 97.60662159599087, "alt_km": 623.9265974777691, "timestamp": "2025-12-08T15:42:50.192107+00:00", "meta": {"OBJECT_NAME": "COSMOS 2251 DEB", "OBJECT_ID": "1993-036AJU", "EPOCH": "2025-12-07T23:12:07.404768", "MEAN_MOTION": 14.80158124, "ECCENTRICITY": 0.00028016, "INCLINATION": 74.0056, "RA_OF_ASC_NODE": 68.8573, "ARG_OF_PERICENTER": 200.708, "MEAN_ANOMALY": 159.3983, "EPHEMERIS_TYPE": 0, "CLASSIFICATION_TYPE": "U", "NORAD_CAT_ID": 35290, "ELEMENT_SET_NO": 999, "REV_AT_EPOCH": 87887, "BSTAR": 0.0025201941, "MEAN_MOTION_DOT": 0.00019162, "MEAN_MOTION_DDOT": 0}, "tle": {"line1": "1 35290U 93036AJU 25341.96675237  .00019162  00000+0  25202-2 0  9991", "line2": "2 35290  74.0056  68.8573 0002801 200.7080 159.3983 14.80158124878878"}}, "geometry": {"type": "Point", "coordinates": [97.60662159599087, 60.23817133316817]}}, {"type": "Feature", "properties": {"norad_id": 35432, "name": "COSMOS 2251 DEB", "group": "cosmos-2251-debris", "lat": 36.721350509050176, "lon": 36.495384476271894, "alt_km": 493.06351835443365, "timestamp": "2025-12-08T15:42:50.192117+00:00", "meta": {"OBJECT_NAME": "COSMOS 2251 DEB", "OBJECT_ID": "1993-036AKA", "EPOCH": "2025-12-07T20:36:32.304672", "MEAN_MOTION": 15.21390492, "ECCENTRICITY": 0.00123425, "INCLINATION": 74.0217, "RA_OF_ASC_NODE": 25.8267, "ARG_OF_PERICENTER": 346.6851, "MEAN_ANOMALY": 13.4019, "EPHEMERIS_TYPE": 0, "CLASSIFICATION_TYPE": "U", "NORAD_CAT_ID": 35432, "ELEMENT_SET_NO": 999, "REV_AT_EPOCH": 87429, "BSTAR": 0.0062589936, "MEAN_MOTION_DOT": 0.00143455, "MEAN_MOTION_DDOT": 0}, "tle": {"line1": "1 35432U 93036AKA 25341.85870723  .00143455  00000+0  62590-2 0  9998", "line2": "2 35432  74.0217  25.8267 0012342 346.6851  13.4019 15.21390492874299"}}, "geometry": {"type": "Point", "coordinates": [36.495384476271894, 36.721350509050176]}}, {"type": "Feature", "properties": {"norad_id": 35433, "name": "COSMOS 2251 DEB", "group": "cosmos-2251-debris", "lat": 58.279211813031594, "lon": 13.525183493716241, "alt_km": 752.8091022133303, "timestamp": "2025-12-08T15:42:50.192127+00:00", "meta": {"OBJECT_NAME": "COSMOS 2251 DEB", "OBJECT_ID": "1993-036AKB", "EPOCH": "2025-12-05T19:38:16.327392", "MEAN_MOTION": 14.34730306, "ECCENTRICITY": 0.00254596, "INCLINATION": 74.0335, "RA_OF_ASC_NODE": 351.128, "ARG_OF_PERICENTER": 48.4343, "MEAN_ANOMALY": 128.9694, "EPHEMERIS_TYPE": 0, "CLASSIFICATION_TYPE": "U", "NORAD_CAT_ID": 35433, "ELEMENT_SET_NO": 999, "REV_AT_EPOCH": 86481, "BSTAR": 0.00044039966, "MEAN_MOTION_DOT": 1.226e-05, "MEAN_MOTION_DDOT": 0}, "tle": {"line1": "1 35433U 93036AKB 25339.81824453  .00001226  00000+0  44040-3 0  9991", "line2": "2 35433  74.0335 351.1280 0025459  48.4343 128.9694 14.34730306864810"}}, "geometry": {"type": "Point", "coordinates": [13.525183493716241, 58.279211813031594]}}, {"type": "Feature", "properties": {"norad_id": 35434, "name": "COSMOS 2251 DEB", "group": "cosmos-2251-debris", "lat": 64.30200806893075, "lon": 4.509799526635375, "alt_km": 862.4892593348386, "timestamp": "2025-12-08T15:42:50.192137+00:00", "meta": {"OBJECT_NAME": "COSMOS 2251 DEB", "OBJECT_ID": "1993-036AKC", "EPOCH": "2025-12-07T22:21:11.338272", "MEAN_MOTION": 14.25665764, "ECCENTRICITY": 0.00875677, "INCLINATION": 74.0404, "RA_OF_ASC_NODE": 222.3034, "ARG_OF_PERICENTER": 294.0481, "MEAN_ANOMALY": 65.1521, "EPHEMERIS_TYPE": 0, "CLASSIFICATION_TYPE": "U", "NORAD_CAT_ID": 35434, "ELEMENT_SET_NO": 999, "REV_AT_EPOCH": 86049, "BSTAR": 0.00094505461, "MEAN_MOTION_DOT": 2.307e-05, "MEAN_MOTION_DDOT": 0}, "tle": {"line1": "1 35434U 93036AKC 25341.93138123  .00002307  00000+0  94505-3 0  9992", "line2": "2 35434  74.0404 222.3034 0087567 294.0481  65.1521 14.25665764860490"}}, "geometry": {"type": "Point", "coordinates": [4.509799526635375, 64.30200806893075]}}, {"type": "Feature", "properties": {"norad_id": 35435, "name": "COSMOS 2251 DEB", "group": "cosmos-2251-debris", "lat": -64.06834454167806, "lon": -31.760011309396678, "alt_km": 637.0436500247388, "timestamp": "2025-12-08T15:42:50.192147+00:00", "meta": {"OBJECT_NAME": "COSMOS 2251 DEB", "OBJECT_ID": "1993-036AKD", "EPOCH": "2025-12-06T15:33:19.570752", "MEAN_MOTION": 14.78155636, "ECCENTRICITY": 0.00089158, "INCLINATION": 74.011, "RA_OF_ASC_NODE": 116.0521, "ARG_OF_PERICENTER": 210.6381, "MEAN_ANOMALY": 164.7127, "EPHEMERIS_TYPE": 0, "CLASSIFICATION_TYPE": "U", "NORAD_CAT_ID": 35435, "ELEMENT_SET_NO": 999, "REV_AT_EPOCH": 87449, "BSTAR": 0.0041982547, "MEAN_MOTION_DOT": 0.00030535, "MEAN_MOTION_DDOT": 0}, "tle": {"line1": "1 35435U 93036AKD 25340.64814318  .00030535  00000+0  41983-2 0  9992", "line2": "2 35435  74.0110 116.0521 0008915 210.6381 164.7127 14.78155636874491"}}, "geometry": {"type": "Point", "coordinates": [-31.760011309396678, -64.06834454167806]}}, {"type": "Feature", "properties": {"norad_id": 35439, "name": "COSMOS 2251 DEB", "group": "cosmos-2251-debris", "lat": -2.640053109973483, "lon": 140.981070732391, "alt_km": 795.8623401107352, "timestamp": "2025-12-08T15:42:50.192158+00:00", "meta": {"OBJECT_NAME": "COSMOS 2251 DEB", "OBJECT_ID": "1993-036AKH", "EPOCH": "2025-12-08T04:32:22.387200", "MEAN_MOTION": 13.92777063, "ECCENTRICITY": 0.02417559, "INCLINATION": 74.0186, "RA_OF_ASC_NODE": 142.5356, "ARG_OF_PERICENTER": 312.8367, "MEAN_ANOMALY": 228.9661, "EPHEMERIS_TYPE": 0, "CLASSIFICATION_TYPE": "U", "NORAD_CAT_ID": 35439, "ELEMENT_SET_NO": 999, "REV_AT_EPOCH": 83897, "BSTAR": 0.0018631415, "MEAN_MOTION_DOT": 3.041e-05, "MEAN_MOTION_DDOT": 0}, "tle": {"line1": "1 35439U 93036AKH 25342.18914800  .00003041  00000+0  18631-2 0  9990", "line2": "2 35439  74.0186 142.5356 0241755 312.8367 228.9661 13.92777063838976"}}, "geometry": {"type": "Point", "coordinates": [140.981070732391, -2.640053109973483]}}, {"type": "Feature", "properties": {"norad_id": 35440, "name": "COSMOS 2251 DEB", "group": "cosmos-2251-debris", "lat": 28.782750640795484, "lon": -135.39676738070446, "alt_km": 622.2917271057013, "timestamp": "2025-12-08T15:42:50.192169+00:00", "meta": {"OBJECT_NAME": "COSMOS 2251 DEB", "OBJECT_ID": "1993-036AKJ", "EPOCH": "2025-12-06T22:42:44.249472", "MEAN_MOTION": 14.68767431, "ECCENTRICITY": 0.00690638, "INCLINATION": 74.015, "RA_OF_ASC_NODE": 218.8517, "ARG_OF_PERICENTER": 1.0906, "MEAN_ANOMALY": 359.0401, "EPHEMERIS_TYPE": 0, "CLASSIFICATION_TYPE": "U", "NORAD_CAT_ID": 35440, "ELEMENT_SET_NO": 999, "REV_AT_EPOCH": 68680, "BSTAR": 0.00081984037, "MEAN_MOTION_DOT": 4.928e-05, "MEAN_MOTION_DDOT": 0}, "tle": {"line1": "1 35440U 93036AKJ 25340.94634548  .00004928  00000+0  81984-3 0  9999", "line2": "2 35440  74.0150 218.8517 0069063   1.0906 359.0401 14.68767431686804"}}, "geometry": {"type": "Point", "coordinates": [-135.39676738070446, 28.782750640795484]}}, {"type": "Feature", "properties": {"norad_id": 35441, "name": "COSMOS 2251 DEB", "group": "cosmos-2251-debris", "lat": 68.2914525494, "lon": -8.525284016434796, "alt_km": 694.8208215858967, "timestamp": "2025-12-08T15:42:50.192179+00:00", "meta": {"OBJECT_NAME": "COSMOS 2251 DEB", "OBJECT_ID": "1993-036AKK", "EPOCH": "2025-12-06T04:16:00.147072", "MEAN_MOTION": 14.62424677, "ECCENTRICITY": 0.00374671, "INCLINATION": 74.1332, "RA_OF_ASC_NODE": 310.5953, "ARG_OF_PERICENTER": 209.6577, "MEAN_ANOMALY": 150.2468, "EPHEMERIS_TYPE": 0, "CLASSIFICATION_TYPE": "U", "NORAD_CAT_ID": 35441, "ELEMENT_SET_NO": 999, "REV_AT_EPOCH": 87334, "BSTAR": 0.0026738741, "MEAN_MOTION_DOT": 0.00013668, "MEAN_MOTION_DDOT": 0}, "tle": {"line1": "1 35441U 93036AKK 25340.17777948  .00013668  00000+0  26739-2 0  9994", "line2": "2 35441  74.1332 310.5953 0037467 209.6577 150.2468 14.62424677873342"}}, "geometry": {"type": "Point", "coordinates": [-8.525284016434796, 68.2914525494]}}]}